CCSDS_OMM_VERS = 2.0
CREATION_DATE  = 
ORIGINATOR     = 

OBJECT_NAME    = CZ-2C R/B
OBJECT_ID      = 2022-132E
CENTER_NAME    = EARTH
REF_FRAME      = TEME
TIME_SYSTEM    = UTC
MEAN_ELEMENT_THEORY = SGP/SGP4

EPOCH          = 2026-01-25T12:29:21.709824
MEAN_MOTION    = 15.58056601
ECCENTRICITY   = .00166476
INCLINATION    = 97.2956
RA_OF_ASC_NODE = 27.6604
ARG_OF_PERICENTER = 247.9791
MEAN_ANOMALY   = 111.9697

EPHEMERIS_TYPE = 0
CLASSIFICATION_TYPE = U
NORAD_CAT_ID   = 54039
ELEMENT_SET_NO = 999
REV_AT_EPOCH   = 18364
BSTAR          = .58587314E-3
MEAN_MOTION_DOT = .44318E-3
MEAN_MOTION_DDOT = 0

CCSDS_OMM_VERS = 2.0
CREATION_DATE  = 
ORIGINATOR     = 

OBJECT_NAME    = GSLV R/B
OBJECT_ID      = 2022-138AN
CENTER_NAME    = EARTH
REF_FRAME      = TEME
TIME_SYSTEM    = UTC
MEAN_ELEMENT_THEORY = SGP/SGP4

EPOCH          = 2026-01-25T11:02:51.458784
MEAN_MOTION    = 14.96424515
ECCENTRICITY   = .00199058
INCLINATION    = 87.3846
RA_OF_ASC_NODE = 180.8297
ARG_OF_PERICENTER = 312.9946
MEAN_ANOMALY   = 46.9616

EPHEMERIS_TYPE = 0
CLASSIFICATION_TYPE = U
NORAD_CAT_ID   = 54149
ELEMENT_SET_NO = 999
REV_AT_EPOCH   = 17746
BSTAR          = .4027086E-3
MEAN_MOTION_DOT = .4609E-4
MEAN_MOTION_DDOT = 0

CCSDS_OMM_VERS = 2.0
CREATION_DATE  = 
ORIGINATOR     = 

OBJECT_NAME    = XRISM
OBJECT_ID      = 2023-137A
CENTER_NAME    = EARTH
REF_FRAME      = TEME
TIME_SYSTEM    = UTC
MEAN_ELEMENT_THEORY = SGP/SGP4

EPOCH          = 2026-01-25T13:50:03.907104
MEAN_MOTION    = 15.10920839
ECCENTRICITY   = .00080478
INCLINATION    = 31.0009
RA_OF_ASC_NODE = 202.3993
ARG_OF_PERICENTER = 327.0134
MEAN_ANOMALY   = 33.0001

EPHEMERIS_TYPE = 0
CLASSIFICATION_TYPE = U
NORAD_CAT_ID   = 57800
ELEMENT_SET_NO = 999
REV_AT_EPOCH   = 13126
BSTAR          = .49945378E-3
MEAN_MOTION_DOT = .8635E-4
MEAN_MOTION_DDOT = 0

CCSDS_OMM_VERS = 2.0
CREATION_DATE  = 
ORIGINATOR     = 

OBJECT_NAME    = ACS3
OBJECT_ID      = 2024-077B
CENTER_NAME    = EARTH
REF_FRAME      = TEME
TIME_SYSTEM    = UTC
MEAN_ELEMENT_THEORY = SGP/SGP4

EPOCH          = 2026-01-25T15:02:32.222976
MEAN_MOTION    = 13.87746316
ECCENTRICITY   = .00495627
INCLINATION    = 97.2323
RA_OF_ASC_NODE = 336.4152
ARG_OF_PERICENTER = 219.1179
MEAN_ANOMALY   = 140.6397

EPHEMERIS_TYPE = 0
CLASSIFICATION_TYPE = U
NORAD_CAT_ID   = 59588
ELEMENT_SET_NO = 999
REV_AT_EPOCH   = 8822
BSTAR          = .23113538E-1
MEAN_MOTION_DOT = .27734E-3
MEAN_MOTION_DDOT = 0

CCSDS_OMM_VERS = 2.0
CREATION_DATE  = 
ORIGINATOR     = 

OBJECT_NAME    = SZ-21 MODULE
OBJECT_ID      = 2025-246C
CENTER_NAME    = EARTH
REF_FRAME      = TEME
TIME_SYSTEM    = UTC
MEAN_ELEMENT_THEORY = SGP/SGP4

EPOCH          = 2026-01-25T14:31:03.178560
MEAN_MOTION    = 15.65292049
ECCENTRICITY   = .000326
INCLINATION    = 41.4752
RA_OF_ASC_NODE = 107.9254
ARG_OF_PERICENTER = 237.6166
MEAN_ANOMALY   = 122.4359

EPHEMERIS_TYPE = 0
CLASSIFICATION_TYPE = U
NORAD_CAT_ID   = 66515
ELEMENT_SET_NO = 999
REV_AT_EPOCH   = 1131
BSTAR          = .39792943E-3
MEAN_MOTION_DOT = .40571E-3
MEAN_MOTION_DDOT = 0

